line1,line2,validFromUtcTime
1 00000U 00000E   26001.00000000  .00000000  00000-0  27772-4 0    01,2 00000  89.0018   0.3309 0010039 270.5392 254.6052 13.55324820    01,2026-01-01T00:00:00Z
1 00000U 00000E   26002.00000000  .00000000  00000-0  27772-4 0    02,2 00000  89.0015   0.2298 0010002 265.8043  95.5046 13.55297044    06,2026-01-02T00:00:00Z
